NORAD_CAT_ID,OBJECT_NAME,OBJECT_TYPE,EPOCH,MEAN_MOTION,ECCENTRICITY,INCLINATION,RA_OF_ASC_NODE,ARG_OF_PERICENTER,MEAN_ANOMALY,BSTAR,MEAN_MOTION_DOT,MEAN_MOTION_DDOT,TLE_LINE0,TLE_LINE1,TLE_LINE2,SEMIMAJOR_AXIS,PERIOD,APOGEE,PERIGEE,DECAYED
54064.0,STARLINK-5172,PAYLOAD,2022-11-17 14:00:01,15.73226664,0.0004331,53.2136,9.4178,5.5051,342.0406,-0.00012756,-0.00018519,0.0,0 STARLINK-5172,1 54064U 22136P   22321.58334491 -.00018519  00000-0 -12756-3 0  9990,2 54064  53.2136   9.4178 0004331   5.5051 342.0406 15.73226664  1302,6727.819,91.532,352.598,346.77,0.0
54064.0,STARLINK-5172,PAYLOAD,2022-11-17 22:00:00,15.73200342,0.0004076,53.2136,7.7663,2.4899,73.9566,-0.00023268,-0.00033168,0.0,0 STARLINK-5172,1 54064U 22136P   22321.91667824 -.00033168  00000-0 -23268-3 0  9993,2 54064  53.2136   7.7663 0004076   2.4899  73.9566 15.73200342  4961,6727.894,91.533,352.501,347.017,0.0
54064.0,STARLINK-5172,PAYLOAD,2022-11-18 14:00:01,15.7320511,0.000436,53.2138,4.4692,2.6132,251.6637,0.00028621,0.00039762,0.0,0 STARLINK-5172,1 54064U 22136P   22322.58334491  .00039762  00000-0  28621-3 0  9990,2 54064  53.2138   4.4692 0004360   2.6132 251.6637 15.73205110  5072,6727.880999999999,91.533,352.67900000000014,346.81199999999984,0.0
54064.0,STARLINK-5172,PAYLOAD,2022-11-18 22:00:00,15.73199353,0.0004146,53.214,2.8175,3.8105,339.4329,9.7896e-05,0.00013142,0.0,0 STARLINK-5172,1 54064U 22136P   22322.91667824  .00013142  00000-0  97896-4 0  9991,2 54064  53.2140   2.8175 0004146   3.8105 339.4329 15.73199353  1304,6727.897,91.533,352.551,346.973,0.0
54064.0,STARLINK-5172,PAYLOAD,2022-11-19 08:00:01,15.73179945,0.0004352,53.2138,0.7567,8.1377,176.2788,0.00024176,0.00033427,0.0,0 STARLINK-5172,1 54064U 22136P   22323.33334491  .00033427  00000-0  24176-3 0  9997,2 54064  53.2138   0.7567 0004352   8.1377 176.2788 15.73179945  5182,6727.9519999999975,91.534,352.745,346.889,0.0
54064.0,STARLINK-5172,PAYLOAD,2022-11-19 14:00:01,15.73178353,0.0004462,53.2133,359.5204,8.4953,152.6079,0.00068372,0.00096393,0.0,0 STARLINK-5172,1 54064U 22136P   22323.58334491  .00096393  00000-0  68372-3 0  9991,2 54064  53.2133 359.5204 0004462   8.4953 152.6079 15.73178353  1308,6727.956999999999,91.534,352.824,346.82,0.0
54064.0,STARLINK-5172,PAYLOAD,2022-11-19 22:00:00,15.73227115,0.0004182,53.2134,357.8687,7.4226,242.6304,-0.00013918,-0.00020144,0.0,0 STARLINK-5172,1 54064U 22136P   22323.91667824 -.00020144  00000-0 -13918-3 0  9996,2 54064  53.2134 357.8687 0004182   7.4226 242.6304 15.73227115  1308,6727.818,91.532,352.496,346.869,0.0
54064.0,STARLINK-5172,PAYLOAD,2022-11-20 06:00:00,15.7326081,0.000419,53.2135,356.2199,4.9533,334.045,-0.0010317,-0.0014344,0.0,0 STARLINK-5172,1 54064U 22136P   22324.25001157 -.00143440  00000-0 -10317-2 0  9999,2 54064  53.2135 356.2199 0004190   4.9533 334.0450 15.73260810  5336,6727.722,91.53,352.406,346.76800000000014,0.0
54064.0,STARLINK-5172,PAYLOAD,2022-11-20 14:00:01,15.73119736,0.0004459,53.2133,354.5715,2.5529,65.3856,0.00044296,0.00061817,0.0,0 STARLINK-5172,1 54064U 22136P   22324.58334491  .00061817  00000-0  44296-3 0  9994,2 54064  53.2133 354.5715 0004459   2.5529  65.3856 15.73119736  1303,6728.124,91.538,352.98900000000015,346.98900000000015,0.0
54064.0,STARLINK-5172,PAYLOAD,2022-11-20 22:00:00,15.73135638,0.0004253999999999,53.2136,352.92,2.7936,154.0104,0.00059798,0.00083944,0.0,0 STARLINK-5172,1 54064U 22136P   22324.91667824  .00083944  00000-0  59798-3 0  9998,2 54064  53.2136 352.9200 0004254   2.7936 154.0104 15.73135638  1305,6728.079000000002,91.537,352.806,347.082,0.0
54064.0,STARLINK-5172,PAYLOAD,2022-11-21 08:00:01,15.7321058,0.0004287,53.2145,350.8592,8.3061,349.7084,0.00018592,0.00025571,0.0,0 STARLINK-5172,1 54064U 22136P   22325.33334491  .00025571  00000-0  18592-3 0  9995,2 54064  53.2145 350.8592 0004287   8.3061 349.7084 15.73210580  5509,6727.865,91.533,352.61400000000015,346.846,0.0
54064.0,STARLINK-5172,PAYLOAD,2022-11-21 14:00:01,15.73252809,0.0004378,53.2144,349.6226,6.4474,328.2689,-0.00030715,-0.00043632,0.0,0 STARLINK-5172,1 54064U 22136P   22325.58334491 -.00043632  00000-0 -30715-3 0  9993,2 54064  53.2144 349.6226 0004378   6.4474 328.2689 15.73252809  1303,6727.745,91.53,352.555,346.664,0.0
54064.0,STARLINK-5172,PAYLOAD,2022-11-21 22:00:00,15.73166473,0.0003995,53.2145,347.9709,3.699,60.0123,-3.4789e-06,-1.112e-05,0.0,0 STARLINK-5172,1 54064U 22136P   22325.91667824 -.00001112  00000-0 -34789-5 0  9993,2 54064  53.2145 347.9709 0003995   3.6990  60.0123 15.73166473  1302,6727.991,91.535,352.5440000000001,347.168,0.0
54064.0,STARLINK-5172,PAYLOAD,2022-11-22 14:00:01,15.73122756,0.0004339,53.2144,344.6736,0.4245,241.1201,0.0004273,0.000596,0.0,0 STARLINK-5172,1 54064U 22136P   22326.58335648  .00059600  00000-0  42730-3 0  9999,2 54064  53.2144 344.6736 0004339   0.4245 241.1201 15.73122756  1301,6728.115,91.538,352.9,347.061,0.0
54064.0,STARLINK-5172,PAYLOAD,2022-11-22 22:00:00,15.73162915,0.0004116,53.2147,343.022,0.5452,329.8055,-0.00015046,-0.00021663,0.0,0 STARLINK-5172,1 54064U 22136P   22326.91667824 -.00021663  00000-0 -15046-3 0  9990,2 54064  53.2147 343.0220 0004116   0.5452 329.8055 15.73162915  1301,6728.001,91.535,352.635,347.097,0.0
54064.0,STARLINK-5172,PAYLOAD,2022-11-23 08:00:01,15.73134405,0.0004396,53.2146,340.9618,1.7624,169.6715,0.00022918,0.00031586,0.0,0 STARLINK-5172,1 54064U 22136P   22327.33334491  .00031586  00000-0  22918-3 0  9997,2 54064  53.2146 340.9618 0004396   1.7624 169.6715 15.73134405  5817,6728.081999999999,91.537,352.905,346.99,0.0
54064.0,STARLINK-5172,PAYLOAD,2022-11-23 14:00:01,15.73156622,0.000445,53.2141,339.7248,2.1062,145.9689,0.00028446,0.00039431,0.0,0 STARLINK-5172,1 54064U 22136P   22327.58334491  .00039431  00000-0  28446-3 0  9993,2 54064  53.2141 339.7248 0004450   2.1062 145.9689 15.73156622  1301,6728.019,91.536,352.87800000000016,346.89,0.0
54064.0,STARLINK-5172,PAYLOAD,2022-11-23 22:00:00,15.73165234,0.000417,53.2141,338.0732,3.1376,233.8427,0.00067543,0.00095143,0.0,0 STARLINK-5172,1 54064U 22136P   22327.91667824  .00095143  00000-0  67543-3 0  9992,2 54064  53.2141 338.0732 0004170   3.1376 233.8427 15.73165234  1305,6727.994000000002,91.535,352.665,347.05400000000014,0.0
54064.0,STARLINK-5172,PAYLOAD,2022-11-24 08:00:01,15.73228816,0.0004392,53.2144,336.0132,5.0596,73.0815,0.000256,0.00035517,0.0,0 STARLINK-5172,1 54064U 22136P   22328.33334491  .00035517  00000-0  25600-3 0  9997,2 54064  53.2144 336.0132 0004392   5.0596  73.0815 15.73228816  5979,6727.813,91.532,352.6330000000001,346.723,0.0
54064.0,STARLINK-5172,PAYLOAD,2022-11-24 14:00:01,15.73271115,0.0004462,53.2143,334.7756,4.644,50.2197,-1.129e-05,-2.216e-05,0.0,0 STARLINK-5172,1 54064U 22136P   22328.58334491 -.00002216  00000-0 -11290-4 0  9997,2 54064  53.2143 334.7756 0004462   4.6440  50.2197 15.73271115  1309,6727.691999999999,91.529,352.559,346.556,0.0
54064.0,STARLINK-5172,PAYLOAD,2022-11-24 22:00:00,15.73226561,0.0004133,53.2147,333.1238,4.1774,139.714,0.00027508,0.00038217,0.0,0 STARLINK-5172,1 54064U 22136P   22328.91667824  .00038217  00000-0  27508-3 0  9999,2 54064  53.2147 333.1238 0004133   4.1774 139.7140 15.73226561  1307,6727.819,91.532,352.465,346.904,0.0
54064.0,STARLINK-5172,PAYLOAD,2022-11-25 08:00:01,15.73207263,0.0004369,53.2148,331.0636,4.2786,340.8488,0.0001383,0.00018844,0.0,0 STARLINK-5172,1 54064U 22136P   22329.33334491  .00018844  00000-0  13830-3 0  9994,2 54064  53.2148 331.0636 0004369   4.2786 340.8488 15.73207263  6136,6727.874,91.533,352.67900000000014,346.8,0.0
54064.0,STARLINK-5172,PAYLOAD,2022-11-25 14:00:01,15.73243528,0.0004405,53.2143,329.826,2.6823,319.1541,0.00020052,0.00027676,0.0,0 STARLINK-5172,1 54064U 22136P   22329.58334491  .00027676  00000-0  20052-3 0  9998,2 54064  53.2143 329.8260 0004405   2.6823 319.1541 15.73243528  1301,6727.771,91.531,352.6,346.672,0.0
54064.0,STARLINK-5172,PAYLOAD,2022-11-25 22:00:00,15.73250909,0.0004077,53.2145,328.1746,1.7478,49.0937,-6.1111e-05,-9.215e-05,0.0,0 STARLINK-5172,1 54064U 22136P   22329.91667824 -.00009215  00000-0 -61111-4 0  9997,2 54064  53.2145 328.1746 0004077   1.7478  49.0937 15.73250909  6220,6727.75,91.53,352.358,346.872,0.0
54064.0,STARLINK-5172,PAYLOAD,2022-11-26 14:00:01,15.73265844,0.0004297,53.2147,324.8768,358.6902,230.0904,-0.0006541,-0.00091744,0.0,0 STARLINK-5172,1 54064U 22136P   22330.58334491 -.00091744  00000-0 -65410-3 0  9996,2 54064  53.2147 324.8768 0004297 358.6902 230.0904 15.73265844  1303,6727.706999999999,91.529,352.463,346.682,0.0
54064.0,STARLINK-5172,PAYLOAD,2022-11-26 22:00:00,15.73189008,0.0004075,53.2151,323.2253,1.9006,315.8575,-0.00012675,-0.00018375,0.0,0 STARLINK-5172,1 54064U 22136P   22330.91667824 -.00018375  00000-0 -12675-3 0  9996,2 54064  53.2151 323.2253 0004075   1.9006 315.8575 15.73189008  1300,6727.927,91.534,352.533,347.05,0.0
54064.0,STARLINK-5172,PAYLOAD,2022-11-27 14:00:01,15.73169645,0.0004355,53.2147,319.9281,7.9333,127.5869,0.00013048,0.00017711,0.0,0 STARLINK-5172,1 54064U 22136P   22331.58334491  .00017711  00000-0  13048-3 0  9997,2 54064  53.2147 319.9281 0004355   7.9333 127.5869 15.73169645  1307,6727.982,91.535,352.777,346.917,0.0
54064.0,STARLINK-5172,PAYLOAD,2022-11-27 22:00:00,15.73191685,0.0004057,53.2148,318.2771,8.8968,215.5177,0.00020716,0.0002855,0.0,0 STARLINK-5172,1 54064U 22136P   22331.91667824  .00028550  00000-0  20716-3 0  9996,2 54064  53.2148 318.2771 0004057   8.8968 215.5177 15.73191685  1306,6727.919,91.534,352.51300000000015,347.05400000000014,0.0
54064.0,STARLINK-5172,PAYLOAD,2022-11-28 00:00:00,15.7322871,0.0004083,53.2151,317.8651,8.6871,327.9480000000001,-0.00031308,-0.00044409,0.0,0 STARLINK-5172,1 54064U 22136P   22332.00001157 -.00044409  00000-0 -31308-3 0  9990,2 54064  53.2151 317.8651 0004083   8.6871 327.9480 15.73228710  6559,6727.813,91.532,352.425,346.931,0.0
